[{"OBJECT_NAME":"GEESAT-1 02","OBJECT_ID":"2022-058B","EPOCH":"2026-03-09T21:31:57.814752","MEAN_MOTION":14.81023731,"ECCENTRICITY":0.0023088,"INCLINATION":50.0005,"RA_OF_ASC_NODE":301.1233,"ARG_OF_PERICENTER":231.8367,"MEAN_ANOMALY":128.049,"EPHEMERIS_TYPE":0,"CLASSIFICATION_TYPE":"U","NORAD_CAT_ID":52786,"ELEMENT_SET_NO":999,"REV_AT_EPOCH":20521,"BSTAR":0.00032711202,"MEAN_MOTION_DOT":2.348e-5,"MEAN_MOTION_DDOT":0},{"OBJECT_NAME":"UNKNOWN","OBJECT_ID":"","EPOCH":"2026-03-09T09:54:57.914784","MEAN_MOTION":14.59294222,"ECCENTRICITY":0.0106584,"INCLINATION":65.2027,"RA_OF_ASC_NODE":75.7912,"ARG_OF_PERICENTER":14.2221,"MEAN_ANOMALY":346.1838,"EPHEMERIS_TYPE":0,"CLASSIFICATION_TYPE":"U","NORAD_CAT_ID":87164,"ELEMENT_SET_NO":999,"REV_AT_EPOCH":64841,"BSTAR":0.0011471,"MEAN_MOTION_DOT":5.763e-5,"MEAN_MOTION_DDOT":0}]
